ORBCOMM FM37            
1 33064U 08031E   25288.59705602  .00002099  00000+0  30055-3 0  9992
2 33064  48.4376 131.0247 0005393 177.8585 275.7398 14.80246260931882
ORBCOMM FM40            
1 33065U 08031F   25288.58146858  .00003249  00000+0  42533-3 0  9996
2 33065  48.4394 113.0700 0006711 191.8571 211.4698 14.82641009932022
VESSELSAT 1             
1 37840U 11058C   25288.57303808  .00000405  00000+0  76522-4 0  9990
2 37840  19.9617  85.4143 0013724  70.8443 289.3446 14.11379807723330
ORBCOMM FM109           
1 40086U 14040A   25288.36069012  .00000979  00000+0  24561-3 0  9994
2 40086  47.0024 168.6584 0001470 191.4177 168.6676 14.58386760598603
ORBCOMM FM107           
1 40087U 14040B   25288.38305669  .00000809  00000+0  20899-3 0  9990
2 40087  47.0042 169.4669 0000589 112.7866 247.3082 14.58461873598681
ORBCOMM FM106           
1 40088U 14040C   25288.50089186  .00001605  00000+0  29707-3 0  9990
2 40088  47.0617 341.3411 0017701 266.1719  93.7148 14.69783904601170
ORBCOMM FM111           
1 40089U 14040D   25288.38365374  .00003561  00000+0  41308-3 0  9997
2 40089  46.9997 175.6759 0029009  48.1334 312.2032 14.87126202608112
ORBCOMM FM104           
1 40090U 14040E   25287.81831726  .00000909  00000+0  23827-3 0  9994
2 40090  47.0047 207.1904 0016222  29.1791 330.9998 14.56850987598064
